{"fetched_at":"2026-07-21T17:53:03.255Z","source":"https://celestrak.org/NORAD/elements/gp.php?GROUP=kuiper&FORMAT=JSON","constellation":"kuiper","records":[{"OBJECT_NAME":"KUIPER-00117","OBJECT_ID":"2025-228C","EPOCH":"2026-07-21T01:39:51.446016","CLASSIFICATION_TYPE":"U","MEAN_MOTION":14.79995258,"ECCENTRICITY":0.00013059,"INCLINATION":51.8971,"RA_OF_ASC_NODE":128.265,"ARG_OF_PERICENTER":91.4685,"MEAN_ANOMALY":268.6427,"EPHEMERIS_TYPE":0,"NORAD_CAT_ID":65949,"ELEMENT_SET_NO":999,"REV_AT_EPOCH":4301,"BSTAR":0.00060610871,"MEAN_MOTION_DOT":0.00004409,"MEAN_MOTION_DDOT":0},{"OBJECT_NAME":"KUIPER-00121","OBJECT_ID":"2025-228D","EPOCH":"2026-07-21T00:59:11.434848","CLASSIFICATION_TYPE":"U","MEAN_MOTION":14.79939736,"ECCENTRICITY":0.00008307,"INCLINATION":51.8998,"RA_OF_ASC_NODE":123.4073,"ARG_OF_PERICENTER":99.034,"MEAN_ANOMALY":261.0716,"EPHEMERIS_TYPE":0,"NORAD_CAT_ID":65950,"ELEMENT_SET_NO":999,"REV_AT_EPOCH":4308,"BSTAR":0.00030292681,"MEAN_MOTION_DOT":0.00002089,"MEAN_MOTION_DDOT":0},{"OBJECT_NAME":"KUIPER-00122","OBJECT_ID":"2025-228E","EPOCH":"2026-07-21T00:43:39.172800","CLASSIFICATION_TYPE":"U","MEAN_MOTION":14.79944364,"ECCENTRICITY":0.00008664,"INCLINATION":51.8998,"RA_OF_ASC_NODE":133.4273,"ARG_OF_PERICENTER":83.1046,"MEAN_ANOMALY":277.0015,"EPHEMERIS_TYPE":0,"NORAD_CAT_ID":65951,"ELEMENT_SET_NO":999,"REV_AT_EPOCH":4294,"BSTAR":0.00032441174,"MEAN_MOTION_DOT":0.00002253,"MEAN_MOTION_DDOT":0},{"OBJECT_NAME":"KUIPER-00123","OBJECT_ID":"2025-228F","EPOCH":"2026-07-21T01:32:14.054784","CLASSIFICATION_TYPE":"U","MEAN_MOTION":14.79955351,"ECCENTRICITY":0.000097,"INCLINATION":51.899,"RA_OF_ASC_NODE":133.2893,"ARG_OF_PERICENTER":67.8822,"MEAN_ANOMALY":292.2243,"EPHEMERIS_TYPE":0,"NORAD_CAT_ID":65952,"ELEMENT_SET_NO":999,"REV_AT_EPOCH":4294,"BSTAR":0.00031934199,"MEAN_MOTION_DOT":0.00002215,"MEAN_MOTION_DDOT":0},{"OBJECT_NAME":"KUIPER-00124","OBJECT_ID":"2025-228G","EPOCH":"2026-07-21T00:06:38.015424","CLASSIFICATION_TYPE":"U","MEAN_MOTION":14.79954488,"ECCENTRICITY":0.00009112,"INCLINATION":51.8992,"RA_OF_ASC_NODE":126.041,"ARG_OF_PERICENTER":84.1378,"MEAN_ANOMALY":275.9689,"EPHEMERIS_TYPE":0,"NORAD_CAT_ID":65953,"ELEMENT_SET_NO":999,"REV_AT_EPOCH":4304,"BSTAR":0.00028535478,"MEAN_MOTION_DOT":0.00001956,"MEAN_MOTION_DDOT":0},{"OBJECT_NAME":"KUIPER-00125","OBJECT_ID":"2025-228H","EPOCH":"2026-07-21T03:44:28.753440","CLASSIFICATION_TYPE":"U","MEAN_MOTION":14.79945993,"ECCENTRICITY":0.00009543,"INCLINATION":51.9008,"RA_OF_ASC_NODE":110.4178,"ARG_OF_PERICENTER":93.0975,"MEAN_ANOMALY":267.0097,"EPHEMERIS_TYPE":0,"NORAD_CAT_ID":65954,"ELEMENT_SET_NO":999,"REV_AT_EPOCH":4327,"BSTAR":0.00034859233,"MEAN_MOTION_DOT":0.00002438,"MEAN_MOTION_DDOT":0},{"OBJECT_NAME":"KUIPER-00126","OBJECT_ID":"2025-228J","EPOCH":"2026-07-21T02:24:44.526240","CLASSIFICATION_TYPE":"U","MEAN_MOTION":14.79953473,"ECCENTRICITY":0.00009607,"INCLINATION":51.8992,"RA_OF_ASC_NODE":130.6479,"ARG_OF_PERICENTER":85.3772,"MEAN_ANOMALY":274.73,"EPHEMERIS_TYPE":0,"NORAD_CAT_ID":65955,"ELEMENT_SET_NO":999,"REV_AT_EPOCH":4298,"BSTAR":0.0002962283,"MEAN_MOTION_DOT":0.00002039,"MEAN_MOTION_DDOT":0},{"OBJECT_NAME":"KUIPER-00127","OBJECT_ID":"2025-228K","EPOCH":"2026-07-21T03:49:22.503936","CLASSIFICATION_TYPE":"U","MEAN_MOTION":14.79940355,"ECCENTRICITY":0.00010196,"INCLINATION":51.9014,"RA_OF_ASC_NODE":122.8599,"ARG_OF_PERICENTER":87.1983,"MEAN_ANOMALY":272.9096,"EPHEMERIS_TYPE":0,"NORAD_CAT_ID":65956,"ELEMENT_SET_NO":999,"REV_AT_EPOCH":4310,"BSTAR":0.00034940072,"MEAN_MOTION_DOT":0.00002444,"MEAN_MOTION_DDOT":0},{"OBJECT_NAME":"KUIPER-00128","OBJECT_ID":"2025-228L","EPOCH":"2026-07-21T03:25:01.026336","CLASSIFICATION_TYPE":"U","MEAN_MOTION":14.79958059,"ECCENTRICITY":0.00009468,"INCLINATION":51.901,"RA_OF_ASC_NODE":122.9997,"ARG_OF_PERICENTER":84.7626,"MEAN_ANOMALY":275.3444,"EPHEMERIS_TYPE":0,"NORAD_CAT_ID":65957,"ELEMENT_SET_NO":999,"REV_AT_EPOCH":4309,"BSTAR":0.0003430137,"MEAN_MOTION_DOT":0.00002396,"MEAN_MOTION_DDOT":0},{"OBJECT_NAME":"KUIPER-00129","OBJECT_ID":"2025-228M","EPOCH":"2026-07-20T23:29:41.438976","CLASSIFICATION_TYPE":"U","MEAN_MOTION":14.79953246,"ECCENTRICITY":0.00008855,"INCLINATION":51.9009,"RA_OF_ASC_NODE":118.7036,"ARG_OF_PERICENTER":90.4027,"MEAN_ANOMALY":269.7037,"EPHEMERIS_TYPE":0,"NORAD_CAT_ID":65958,"ELEMENT_SET_NO":999,"REV_AT_EPOCH":4314,"BSTAR":0.00030232318,"MEAN_MOTION_DOT":0.00002085,"MEAN_MOTION_DDOT":0},{"OBJECT_NAME":"KUIPER-00130","OBJECT_ID":"2025-228N","EPOCH":"2026-07-21T01:51:42.156000","CLASSIFICATION_TYPE":"U","MEAN_MOTION":14.79942562,"ECCENTRICITY":0.00007797,"INCLINATION":51.9032,"RA_OF_ASC_NODE":120.8024,"ARG_OF_PERICENTER":91.2378,"MEAN_ANOMALY":268.8674,"EPHEMERIS_TYPE":0,"NORAD_CAT_ID":65959,"ELEMENT_SET_NO":999,"REV_AT_EPOCH":3341,"BSTAR":0.00033026969,"MEAN_MOTION_DOT":0.00002298,"MEAN_MOTION_DDOT":0},{"OBJECT_NAME":"KUIPER-00134","OBJECT_ID":"2025-228P","EPOCH":"2026-07-21T05:32:18.064896","CLASSIFICATION_TYPE":"U","MEAN_MOTION":15.41938551,"ECCENTRICITY":0.00066739,"INCLINATION":51.8716,"RA_OF_ASC_NODE":31.6484,"ARG_OF_PERICENTER":75.0837,"MEAN_ANOMALY":285.089,"EPHEMERIS_TYPE":0,"NORAD_CAT_ID":65960,"ELEMENT_SET_NO":999,"REV_AT_EPOCH":4437,"BSTAR":0.00056395005,"MEAN_MOTION_DOT":0.00024063,"MEAN_MOTION_DDOT":0},{"OBJECT_NAME":"KUIPER-00135","OBJECT_ID":"2025-228Q","EPOCH":"2026-07-20T23:25:51.189888","CLASSIFICATION_TYPE":"U","MEAN_MOTION":14.79945457,"ECCENTRICITY":0.0000911,"INCLINATION":51.9028,"RA_OF_ASC_NODE":121.304,"ARG_OF_PERICENTER":86.6856,"MEAN_ANOMALY":273.4211,"EPHEMERIS_TYPE":0,"NORAD_CAT_ID":65961,"ELEMENT_SET_NO":999,"REV_AT_EPOCH":4310,"BSTAR":0.00029766588,"MEAN_MOTION_DOT":0.00002049,"MEAN_MOTION_DDOT":0},{"OBJECT_NAME":"KUIPER-00136","OBJECT_ID":"2025-228R","EPOCH":"2026-07-21T03:32:49.646112","CLASSIFICATION_TYPE":"U","MEAN_MOTION":14.79947819,"ECCENTRICITY":0.00009456,"INCLINATION":51.9016,"RA_OF_ASC_NODE":118,"ARG_OF_PERICENTER":84.0389,"MEAN_ANOMALY":276.0681,"EPHEMERIS_TYPE":0,"NORAD_CAT_ID":65962,"ELEMENT_SET_NO":999,"REV_AT_EPOCH":4316,"BSTAR":0.00035813031,"MEAN_MOTION_DOT":0.00002511,"MEAN_MOTION_DDOT":0},{"OBJECT_NAME":"KUIPER-00137","OBJECT_ID":"2025-228S","EPOCH":"2026-07-21T03:36:39.025152","CLASSIFICATION_TYPE":"U","MEAN_MOTION":14.79915448,"ECCENTRICITY":0.00010621,"INCLINATION":51.9035,"RA_OF_ASC_NODE":115.4836,"ARG_OF_PERICENTER":87.5313,"MEAN_ANOMALY":272.5771,"EPHEMERIS_TYPE":0,"NORAD_CAT_ID":65963,"ELEMENT_SET_NO":999,"REV_AT_EPOCH":4320,"BSTAR":0.00033958668,"MEAN_MOTION_DOT":0.00002367,"MEAN_MOTION_DDOT":0},{"OBJECT_NAME":"KUIPER-00138","OBJECT_ID":"2025-228T","EPOCH":"2026-07-21T01:14:41.216352","CLASSIFICATION_TYPE":"U","MEAN_MOTION":14.79930233,"ECCENTRICITY":0.0000729,"INCLINATION":51.8992,"RA_OF_ASC_NODE":113.344,"ARG_OF_PERICENTER":80.7916,"MEAN_ANOMALY":279.3129,"EPHEMERIS_TYPE":0,"NORAD_CAT_ID":65964,"ELEMENT_SET_NO":999,"REV_AT_EPOCH":4322,"BSTAR":-0.0001073239,"MEAN_MOTION_DOT":-0.00001039,"MEAN_MOTION_DDOT":0}]}
