KUIPER-00117            
1 65949U 25228C   26202.06934544  .00004409  00000+0  60611-3 0  9992
2 65949  51.8971 128.2650 0001305  91.4685 268.6427 14.79995258 43014
KUIPER-00121            
1 65950U 25228D   26202.04110457  .00002089  00000+0  30293-3 0  9996
2 65950  51.8998 123.4073 0000830  99.0340 261.0716 14.79939736 43089
KUIPER-00122            
1 65951U 25228E   26202.03031450  .00002253  00000+0  32441-3 0  9991
2 65951  51.8998 133.4273 0000866  83.1046 277.0015 14.79944364 42945
KUIPER-00123            
1 65952U 25228F   26202.06405156  .00002215  00000+0  31934-3 0  9997
2 65952  51.8990 133.2893 0000970  67.8822 292.2243 14.79955351 42941
KUIPER-00124            
1 65953U 25228G   26202.00460666  .00001956  00000+0  28535-3 0  9993
2 65953  51.8992 126.0410 0000911  84.1378 275.9689 14.79954488 43046
KUIPER-00125            
1 65954U 25228H   26202.15588835  .00002438  00000+0  34859-3 0  9991
2 65954  51.9008 110.4178 0000954  93.0975 267.0097 14.79945993 43274
KUIPER-00126            
1 65955U 25228J   26202.10051535  .00002039  00000+0  29623-3 0  9999
2 65955  51.8992 130.6479 0000960  85.3772 274.7300 14.79953473 42981
KUIPER-00127            
1 65956U 25228K   26202.15928824  .00002444  00000+0  34940-3 0  9997
2 65956  51.9014 122.8599 0001019  87.1983 272.9096 14.79940355 43106
KUIPER-00128            
1 65957U 25228L   26202.14237299  .00002396  00000+0  34301-3 0  9993
2 65957  51.9010 122.9997 0000946  84.7626 275.3444 14.79958059 43093
KUIPER-00129            
1 65958U 25228M   26201.97895184  .00002085  00000+0  30232-3 0  9991
2 65958  51.9009 118.7036 0000885  90.4027 269.7037 14.79953246 43144
KUIPER-00130            
1 65959U 25228N   26202.07757125  .00002298  00000+0  33027-3 0  9997
2 65959  51.9032 120.8024 0000779  91.2378 268.8674 14.79942562 33417
KUIPER-00134            
1 65960U 25228P   26202.23076464  .00024063  00000+0  56395-3 0  9994
2 65960  51.8716  31.6484 0006673  75.0837 285.0890 15.41938551 44376
KUIPER-00135            
1 65961U 25228Q   26201.97628692  .00002049  00000+0  29767-3 0  9994
2 65961  51.9028 121.3040 0000911  86.6856 273.4211 14.79945457 43108
KUIPER-00136            
1 65962U 25228R   26202.14779683  .00002511  00000+0  35813-3 0  9995
2 65962  51.9016 118.0000 0000945  84.0389 276.0681 14.79947819 43165
KUIPER-00137            
1 65963U 25228S   26202.15045168  .00002367  00000+0  33959-3 0  9999
2 65963  51.9035 115.4836 0001062  87.5313 272.5771 14.79915448 43200
KUIPER-00138            
1 65964U 25228T   26202.05186593 -.00001039  00000+0 -10732-3 0  9998
2 65964  51.8992 113.3440 0000729  80.7916 279.3129 14.79930233 43226
